format  = 'OEF1.1'       ! file format
rectype = 'ML'           ! record type (1L/ML)
refsys  = ECLM J2000     ! default reference system
END_OF_HEADER
2001PF14
! Equinoctial elements: a, e*sin(LP), e*cos(LP), tan(i/2)*sin(LN), tan(i/2)*cos(LN), mean long.
 EQU   2.12095952823382E+00  -0.379031727138898   0.156179117566029    0.036915778664866    0.046325810358322 132.9621289648426
 MJD     52723.987462363 TDT
 MAG  19.538  0.150
! RMS    4.63257E-07   1.31956E-06   2.04312E-06   1.05390E-07   1.74052E-07   1.47203E-04
! EIG   1.92863E-08   6.05347E-08   7.13082E-08   1.47511E-07   3.63219E-07   3.55098E-06
! WEA   0.12462   0.36283   0.57428  -0.00183  -0.00893   0.72315
 COV   2.146071722270637E-13  6.078840965666440E-13  8.880405852224821E-13
 COV   4.315366787237054E-15 -4.924885243966505E-16  6.450636381739701E-11
 COV   1.741231197157760E-12  2.593960721642169E-12  7.632517814233394E-15
 COV  -1.264009567970617E-14  1.883986202016366E-10  4.174343476428864E-12
 COV  -2.075850058993013E-14 -7.564060765207518E-14  3.004089263866843E-10
 COV   1.110701611747656E-14 -9.491065815682667E-16 -1.145765316135935E-12
 COV   3.029421443705723E-14 -5.094747843362744E-12  2.166869401026822E-08
 NOR   1.814288078921294E+15 -8.963275978226509E+14 -5.654399370195178E+14
 NOR  -9.535523713938011E+13 -4.114352501069717E+13  1.021649433475369E+13
 NOR   4.722466154207986E+14  2.967481551488212E+14  4.518508356177056E+12
 NOR  -1.047767897425035E+13 -5.553900721294520E+12  3.441744397239638E+14
 NOR   7.742964030359769E+13  2.480026929569985E+13 -5.658415557368384E+12
 NOR   1.913046265625817E+14  6.451436776052346E+13 -8.035990348463138E+11
 NOR   7.348880382033156E+13 -1.095542522135785E+11  9.629920412325212E+10
